ORBCOMM FM33 [-]        
1 25983U 99065D   23362.13406626  .00001741  00000+0  62718-3 0  9999
2 25983  45.0304  26.1320 0010363 247.4723 215.5365 14.37129878258812
ORBCOMM FM36 [-]        
1 25984U 99065E   23361.67585789  .00002040  00000+0  75902-3 0  9998
2 25984  45.0391 111.4783 0003618 146.2668 213.8410 14.34996961257137
ORBCOMM FM35 [+]        
1 25985U 99065F   23362.10073815  .00001702  00000+0  64580-3 0  9994
2 25985  45.0398 111.7425 0004405 226.9624 133.0855 14.34659366257786
ORBCOMM FM34 [-]        
1 25986U 99065G   23362.13697560  .00001683  00000+0  63972-3 0  9999
2 25986  45.0388 112.0695 0004724 184.6670 175.4134 14.34614307257757
ORBCOMM FM38 [-]        
1 33060U 08031A   23361.33813298  .00003179  00000+0  47899-3 0  9995
2 33060  48.4424 348.6161 0005841 260.5997  99.4256 14.76647368835143
ORBCOMM FM41 [-]        
1 33061U 08031B   23362.40374160  .00002678  00000+0  41045-3 0  9995
2 33061  48.4462 349.8895 0004923 251.8839 261.7965 14.76401641835245
ORBCOMM FM29 [-]        
1 33062U 08031C   23362.02359427  .00002901  00000+0  44324-3 0  9995
2 33062  48.4409 359.6965 0006815 247.4568 146.8618 14.76293642835053
ORBCOMM FM39 [-]        
1 33063U 08031D   23362.03247767  .00002470  00000+0  38959-3 0  9998
2 33063  48.4421  19.2154 0007576 224.3973 135.6334 14.75403371834798
